pha,H,G,diameter,albedo,rot_per,BV,UB,spec_B,spec_T,e,a,q,i,om,w,ma,ad,n,per,per.y,moid,class,data_arc,condition_code
0,16.07,,,,,,,7,153,0.1953,2.344,1.887,3.07,152.85,116.21,292.95,2.8,0.2746,1310.0,3.59,0.874,8,9632.0,0
0,16.09,,,,,,,7,153,0.0762,2.323,2.146,2.82,149.77,155.39,288.33,2.5,0.2784,1290.0,3.54,1.13,8,9737.0,0
0,15.95,,,,,,,7,153,0.1797,2.247,1.843,5.69,220.71,123.3,33.32,2.65,0.2926,1230.0,3.37,0.844,8,9416.0,0
0,15.09,,,,,,,7,153,0.1775,2.399,1.973,2.28,160.84,116.77,236.01,2.82,0.2653,1360.0,3.72,0.959,8,11290.0,0
0,15.55,,,,5.804,,,7,153,0.2108,2.402,1.896,1.59,294.79,68.01,176.68,2.91,0.2647,1360.0,3.72,0.894,8,10635.0,0
0,15.54,,,,,,,7,153,0.2025,2.383,1.9,1.93,187.98,122.5,238.52,2.87,0.2679,1340.0,3.68,0.888,8,9130.0,0
0,15.13,,,,3.906,,,7,153,0.2072,2.406,1.908,2.25,176.85,147.51,203.04,2.9,0.2641,1360.0,3.73,0.897,8,8585.0,0
0,14.55,,,,,,,7,153,0.1429,2.54,2.177,15.39,353.25,359.49,2.0,2.9,0.2435,1480.0,4.05,1.17,8,10269.0,0
0,15.44,,,,,,,7,153,0.1663,2.549,2.125,2.31,182.17,192.55,334.78,2.97,0.2421,1490.0,4.07,1.13,8,11130.0,0
0,15.72,,,,5.291,,,7,153,0.1818,2.748,2.249,1.66,25.81,4.88,117.81,3.25,0.2163,1660.0,4.56,1.25,8,8542.0,0
0,15.43,,,,,,,7,153,0.0617,2.868,2.691,1.22,228.14,181.19,342.14,3.04,0.2029,1770.0,4.86,1.7,8,8781.0,0
0,14.63,,,,,,,7,153,0.1347,2.632,2.277,1.37,311.99,36.65,279.83,2.99,0.2308,1560.0,4.27,1.27,8,8648.0,0
0,13.94,,,,,,,7,153,0.2074,2.921,2.315,9.74,36.72,51.3,290.01,3.53,0.1975,1820.0,4.99,1.35,8,21045.0,0
0,14.2,,,,19.881,,,7,153,0.1908,2.625,2.124,9.46,26.8,35.36,224.25,3.13,0.2318,1550.0,4.25,1.14,8,11563.0,0
0,15.44,,,,,,,7,153,0.1537,2.412,2.041,0.87,182.55,105.91,214.87,2.78,0.2631,1370.0,3.75,1.03,8,14087.0,0
0,14.21,,,,,,,7,153,0.1799,2.763,2.266,12.71,204.23,270.54,30.14,3.26,0.2146,1680.0,4.59,1.32,8,22273.0,0
0,15.53,,,,,,,7,153,0.1804,2.555,2.094,1.69,336.24,16.05,4.14,3.02,0.2413,1490.0,4.08,1.09,8,11164.0,0
0,13.29,,,,6.497,,,7,153,0.2813,2.564,1.843,7.05,33.92,13.28,328.68,3.29,0.24,1500.0,4.11,0.854,8,15573.0,0
0,13.94,,,,,,,7,153,0.1138,2.628,2.329,14.3,157.13,77.55,37.28,2.93,0.2314,1560.0,4.26,1.37,8,8720.0,0
0,15.53,,,,,,,7,153,0.1198,2.734,2.406,4.09,25.12,20.53,118.89,3.06,0.2181,1650.0,4.52,1.42,8,8540.0,0
0,14.07,,,,,,,7,153,0.1499,2.587,2.199,2.72,235.29,200.53,278.35,2.97,0.2369,1520.0,4.16,1.21,8,11627.0,0
0,14.34,,,,,,,7,153,0.2233,2.552,1.982,13.49,320.33,31.02,7.23,3.12,0.2418,1490.0,4.08,0.987,8,11742.0,0
0,14.72,,,,4.68,,,7,153,0.1364,2.629,2.271,1.45,333.45,350.77,303.15,2.99,0.2312,1560.0,4.26,1.26,8,8652.0,0
0,15.26,,,,,,,7,153,0.0445,2.99,2.857,2.76,120.33,107.57,68.66,3.12,0.1907,1890.0,5.17,1.85,8,10478.0,0
0,15.0,,,,,,,7,153,0.0873,2.575,2.35,9.59,209.67,93.05,9.68,2.8,0.2385,1510.0,4.13,1.36,8,10174.0,0
0,14.24,,,,,,,7,153,0.1645,2.591,2.165,4.06,23.29,72.7,260.87,3.02,0.2363,1520.0,4.17,1.19,8,16417.0,0
0,14.28,,,,,,,7,153,0.1524,2.591,2.196,3.44,355.12,322.43,349.24,2.99,0.2363,1520.0,4.17,1.19,8,16389.0,0
0,14.96,,,,,,,7,153,0.1719,2.577,2.134,9.38,199.34,198.61,296.13,3.02,0.2383,1510.0,4.14,1.14,8,8651.0,0
0,14.55,,,,133.279,,,7,153,0.2115,3.045,2.401,7.49,175.86,281.65,196.51,3.69,0.1855,1940.0,5.31,1.43,8,9118.0,0
0,14.41,,,,,,,7,153,0.1201,2.935,2.582,0.82,267.45,119.21,312.79,3.29,0.196,1840.0,5.03,1.59,8,10457.0,0
0,13.93,,,,,,,7,153,0.0075,2.63,2.61,1.82,255.84,11.19,38.89,2.65,0.2311,1560.0,4.26,1.59,8,11575.0,0
0,13.72,,,,,,,7,153,0.0486,2.93,2.788,1.85,16.9,39.15,326.05,3.07,0.1965,1830.0,5.02,1.8,8,16463.0,0
0,14.44,,,,,,,7,153,0.1307,2.588,2.249,3.92,105.59,304.93,280.27,2.93,0.2368,1520.0,4.16,1.26,8,8636.0,0
0,14.32,,,,,,,7,153,0.0471,2.928,2.79,1.36,218.29,200.49,310.24,3.07,0.1967,1830.0,5.01,1.8,8,11005.0,0
0,15.48,,,,,,,7,153,0.1178,2.252,1.987,4.84,223.32,200.95,41.24,2.52,0.2916,1230.0,3.38,1.0,8,10717.0,0
0,14.83,,,,6.498,,,7,153,0.1301,2.349,2.044,5.91,304.02,47.56,355.56,2.65,0.2737,1320.0,3.6,1.04,8,11693.0,0
0,14.87,,,,,,,7,153,0.3115,2.582,1.778,5.35,36.33,37.0,282.64,3.39,0.2375,1520.0,4.15,0.796,8,11465.0,0
0,13.92,,,,,,,7,153,0.0509,2.74,2.6,5.25,23.84,180.05,40.85,2.88,0.2174,1660.0,4.53,1.6,8,15583.0,0
0,14.75,,,,,,,7,153,0.157,2.363,1.992,5.65,318.85,54.17,338.85,2.73,0.2713,1330.0,3.63,0.999,8,9043.0,0
0,14.11,,,,,,,7,153,0.1515,2.762,2.343,5.76,36.7,29.44,161.03,3.18,0.2147,1680.0,4.59,1.36,8,10860.0,0
0,15.69,,,,,,,7,153,0.0712,2.192,2.036,3.82,64.0,357.63,241.15,2.35,0.3038,1190.0,3.24,1.05,8,8507.0,0
0,16.07,,,,,,,7,153,0.1752,2.348,1.937,2.22,349.85,107.46,288.57,2.76,0.2739,1310.0,3.6,0.955,8,15175.0,0
0,15.35,,,,,,,7,153,0.0875,2.212,2.019,5.79,80.38,16.25,154.62,2.41,0.2995,1200.0,3.29,1.04,8,10094.0,0
0,15.18,,,,,,,7,153,0.1231,2.287,2.005,6.2,350.36,306.58,238.03,2.57,0.285,1260.0,3.46,0.998,8,10360.0,0
0,15.53,,,,,,,7,153,0.1931,2.151,1.735,4.49,99.73,219.1,106.74,2.57,0.3125,1150.0,3.15,0.726,8,10146.0,0
0,15.48,,,,,,,7,153,0.148,2.315,1.972,4.87,152.67,207.57,134.68,2.66,0.2799,1290.0,3.52,0.97,8,10096.0,0
0,14.63,,,,,,,7,153,0.0299,2.897,2.811,0.97,308.65,333.37,231.17,2.98,0.1999,1800.0,4.93,1.8,8,22095.0,0
0,14.0,,,,,,,7,153,0.1429,2.972,2.548,13.42,102.34,197.78,176.32,3.4,0.1923,1870.0,5.12,1.54,8,11676.0,0
0,13.55,,,,,,,7,153,0.0802,3.022,2.78,10.23,121.88,206.19,156.96,3.26,0.1876,1920.0,5.25,1.77,8,9389.0,0
0,12.68,,,,,,,7,153,0.099,3.035,2.734,10.76,126.47,289.76,68.89,3.34,0.1864,1930.0,5.29,1.77,8,8902.0,0
0,14.21,,,,,,,7,153,0.1893,2.401,1.947,2.5,20.4,260.99,131.6,2.86,0.2649,1360.0,3.72,0.933,8,10980.0,0
0,15.33,,,,,,,7,153,0.0948,1.98,1.792,5.7,349.66,279.9,188.69,2.17,0.3537,1020.0,2.79,0.788,7,14753.0,0
0,14.96,,,,,,,7,153,0.2124,2.588,2.038,4.17,71.87,324.74,175.53,3.14,0.2367,1520.0,4.16,1.05,8,9796.0,0
0,14.83,,,,,,,7,153,0.1974,2.458,1.973,3.31,86.88,279.04,3.8,2.94,0.2557,1410.0,3.85,0.975,8,10441.0,0
0,14.92,,,,,,,7,153,0.1129,2.433,2.159,2.49,293.84,81.92,31.73,2.71,0.2596,1390.0,3.8,1.16,8,10420.0,0
0,15.66,,,,,,,7,153,0.0608,2.158,2.027,5.42,328.99,55.9,101.05,2.29,0.3109,1160.0,3.17,1.03,8,8920.0,0
0,15.26,,,,,,,7,153,0.1014,2.176,1.956,0.66,169.05,265.89,53.24,2.4,0.307,1170.0,3.21,0.971,8,14245.0,0
0,15.26,,,,,,,7,153,0.1599,2.567,2.157,13.46,185.48,73.44,310.75,2.98,0.2396,1500.0,4.11,1.19,8,10163.0,0
0,15.42,,,,,,,7,153,0.1847,2.175,1.773,5.1,106.09,267.77,103.73,2.58,0.3073,1170.0,3.21,0.783,8,8945.0,0
0,14.66,,,,,,,7,153,0.3127,2.264,1.556,19.87,197.26,275.83,253.47,2.97,0.2893,1240.0,3.41,0.708,9,14571.0,0
0,15.47,,,,,,,7,153,0.0239,2.157,2.106,2.09,103.02,2.77,21.47,2.21,0.311,1160.0,3.17,1.12,8,22246.0,0
0,15.44,,,,,,,7,153,0.0575,2.147,2.023,6.12,17.52,47.37,89.61,2.27,0.3134,1150.0,3.15,1.04,8,9489.0,0
0,16.59,,,,,,,7,153,0.1375,2.171,1.873,0.28,155.18,236.62,75.83,2.47,0.3081,1170.0,3.2,0.878,8,9985.0,0
0,15.32,,,,,,,7,153,0.1634,2.285,1.911,5.28,151.81,117.12,340.87,2.66,0.2854,1260.0,3.45,0.903,8,10870.0,0
0,15.1,,,,,,,7,153,0.1647,2.342,1.956,3.84,301.41,283.4,307.64,2.73,0.2751,1310.0,3.58,0.952,8,8949.0,0
0,15.37,,,,,,,7,153,0.1224,2.24,1.966,1.43,216.06,174.51,321.02,2.51,0.294,1220.0,3.35,0.972,8,15667.0,0
0,15.69,,,,,,,7,153,0.1069,2.273,2.03,3.82,304.8,294.16,44.85,2.52,0.2877,1250.0,3.43,1.02,8,9347.0,0
0,15.25,,,,2.601,,,7,153,0.2122,2.401,1.892,2.72,143.02,180.1,121.91,2.91,0.2649,1360.0,3.72,0.88,8,10630.0,0
0,13.7,,,,,,,7,153,0.0589,3.169,2.982,5.61,289.4,286.04,195.58,3.36,0.1747,2060.0,5.64,1.98,8,9788.0,0
0,15.55,,,,,,,7,153,0.1127,2.178,1.933,4.22,25.63,28.57,50.75,2.42,0.3066,1170.0,3.21,0.945,8,18475.0,0
0,16.14,,,,,,,7,153,0.1375,2.222,1.916,4.57,41.07,9.95,334.63,2.53,0.2976,1210.0,3.31,0.927,8,8942.0,0
0,13.83,,,,,,,7,153,0.1599,3.092,2.597,2.43,71.77,83.48,329.11,3.59,0.1813,1990.0,5.44,1.61,8,15541.0,0
0,15.79,,,,,,,7,153,0.1686,2.3,1.912,4.66,187.02,240.56,201.42,2.69,0.2826,1270.0,3.49,0.931,8,15981.0,0
0,15.14,,,,,,,7,153,0.1012,2.22,1.996,5.46,13.95,220.07,134.13,2.45,0.2979,1210.0,3.31,0.989,8,9504.0,0
0,14.66,,,,,,,7,153,0.1692,2.401,1.995,3.34,122.97,330.03,39.44,2.81,0.265,1360.0,3.72,1.01,8,15404.0,0
0,15.74,,,,,,,7,153,0.1157,2.248,1.987,2.12,277.58,101.73,326.74,2.51,0.2925,1230.0,3.37,0.991,8,11970.0,0
0,14.83,,,,,,,7,153,0.0774,2.393,2.207,7.29,8.73,228.66,246.8,2.58,0.2663,1350.0,3.7,1.21,8,10495.0,0
0,14.35,,,,22.042,,,7,153,0.0846,2.411,2.207,7.22,58.97,47.63,14.24,2.61,0.2633,1370.0,3.74,1.23,8,16348.0,0
0,15.6,,,,,,,7,153,0.1426,2.29,1.963,5.09,183.82,262.34,212.31,2.62,0.2844,1270.0,3.47,0.987,8,16030.0,0
0,15.69,,,,,,,7,153,0.13,2.282,1.985,6.91,32.8,334.74,286.16,2.58,0.2859,1260.0,3.45,0.988,8,10839.0,0
0,15.38,,,,,,,7,153,0.1483,2.314,1.971,5.93,139.35,275.97,206.64,2.66,0.28,1290.0,3.52,0.993,8,10784.0,0
0,14.89,,,,,,,7,153,0.1288,2.45,2.135,4.77,173.1,324.51,308.46,2.77,0.257,1400.0,3.84,1.15,8,9337.0,0
0,13.49,,,,,,,7,153,0.0656,3.238,3.026,8.41,75.25,73.25,248.03,3.45,0.1691,2130.0,5.83,2.05,10,10555.0,0
0,16.09,,,,6.39,,,7,153,0.1577,2.287,1.926,1.17,155.14,242.28,256.15,2.65,0.285,1260.0,3.46,0.934,8,10284.0,0
0,13.8,,,,3.82,,,7,153,0.1086,2.429,2.166,5.15,314.29,267.13,224.59,2.69,0.2603,1380.0,3.79,1.17,8,13867.0,0
0,15.74,,,,22.974,,,7,153,0.0485,2.189,2.083,5.63,275.14,165.26,28.17,2.29,0.3044,1180.0,3.24,1.1,8,11558.0,0
0,16.23,,,,,,,7,153,0.1884,2.194,1.78,3.35,61.7,283.65,93.84,2.61,0.3034,1190.0,3.25,0.778,8,8955.0,0
0,14.98,,,,,,,7,153,0.0239,2.33,2.274,3.32,38.02,76.52,122.5,2.39,0.2772,1300.0,3.56,1.29,8,10279.0,0
0,15.5,,,,,,,7,153,0.0959,2.193,1.983,3.93,84.78,316.55,60.51,2.4,0.3035,1190.0,3.25,0.993,8,8898.0,0
0,15.18,,,,,,,7,153,0.1836,2.415,1.971,1.97,353.25,78.92,53.98,2.86,0.2627,1370.0,3.75,0.987,8,13865.0,0
0,13.17,,,,,,,7,153,0.1013,2.568,2.308,14.13,69.84,102.79,133.15,2.83,0.2395,1500.0,4.12,1.36,8,10738.0,0
0,15.15,,,,,,,7,153,0.1479,2.463,2.099,3.09,55.33,81.58,292.08,2.83,0.255,1410.0,3.87,1.12,8,10806.0,0
0,15.33,,,,,,,7,153,0.1352,2.528,2.187,1.82,184.45,260.68,266.86,2.87,0.2451,1470.0,4.02,1.2,8,10777.0,0
0,16.95,,,,,,,7,153,0.2406,2.352,1.786,1.97,111.05,285.48,189.85,2.92,0.2733,1320.0,3.61,0.794,8,16239.0,0
